[{"OBJECT_NAME":"OBJECT A","OBJECT_ID":"2024-203A","EPOCH":"2026-03-09T23:31:20.812800","MEAN_MOTION":15.27300571,"ECCENTRICITY":0.00108989,"INCLINATION":97.4288,"RA_OF_ASC_NODE":139.5608,"ARG_OF_PERICENTER":322.6893,"MEAN_ANOMALY":37.3588,"EPHEMERIS_TYPE":0,"CLASSIFICATION_TYPE":"U","NORAD_CAT_ID":61869,"ELEMENT_SET_NO":999,"REV_AT_EPOCH":7380,"BSTAR":0.00061472876,"MEAN_MOTION_DOT":0.00016411,"MEAN_MOTION_DDOT":0},{"OBJECT_NAME":"STARLINK-32610","OBJECT_ID":"2024-210N","EPOCH":"2026-03-09T08:07:26.325696","MEAN_MOTION":15.27594292,"ECCENTRICITY":0.00011868,"INCLINATION":42.995,"RA_OF_ASC_NODE":182.0282,"ARG_OF_PERICENTER":291.3499,"MEAN_ANOMALY":68.7225,"EPHEMERIS_TYPE":0,"CLASSIFICATION_TYPE":"U","NORAD_CAT_ID":61971,"ELEMENT_SET_NO":999,"REV_AT_EPOCH":7486,"BSTAR":0.0010545656,"MEAN_MOTION_DOT":0.00028884,"MEAN_MOTION_DDOT":0}]
